UNKNOWN                 
1 87448U          25257.35471533  .00001155  00000+0  96038-3 0  9993
2 87448 100.4604  92.8461 0064474  74.4063 286.4195 13.90223461596812
UNKNOWN                 
1 87456U          25255.95509206  .00003144  00000+0  51293-3 0  9999
2 87456  65.7825 331.5442 0510393  52.1314 312.4809 14.11454790598672
UNKNOWN                 
1 87517U          25256.83879025  .00001430  00000+0  43531-3 0  9996
2 87517  65.8225  91.6533 0672520 349.4349  22.2038 13.60254886580680
UNKNOWN                 
1 87541U          25252.36084022  .00000162  00000+0  39543-3 0  9991
2 87541  99.7148 110.9754 0059646 130.1105  49.9780 13.35527954569431
UNKNOWN                 
1 87553U          25253.31799706  .00002141  00000+0  65984-3 0  9999
2 87553  65.6686 221.8145 0706670 268.6170  83.3895 13.52592903578618
UNKNOWN                 
1 87557U          25256.82678763  .00003169  00000+0  71862-2 0  9993
2 87557 101.7148 100.7812 0055388 232.9405 126.6636 13.26713833553100
UNKNOWN                 
1 87561U          25250.93386150 -.00000097  00000+0 -42698-3 0  9995
2 87561 102.0257 311.0768 0175396 108.9759  74.4336 12.32153064530633
UNKNOWN                 
1 87565U          25255.21054973  .00000959  00000+0  54149-3 0  9999
2 87565  99.9384 237.9303 0174291  58.7506 303.0603 14.05571169603572
UNKNOWN                 
1 87569U          25257.22781736 -.00000030  00000+0  92015-4 0  9996
2 87569 101.9895  71.1408 0055880  69.0947 112.1935 12.68537060547110
UNKNOWN                 
1 87587U          25254.32449551  .00000139  00000+0  52624-4 0  9991
2 87587  74.0223 273.7779 0021159 329.5593  30.4332 14.39981293620508
UNKNOWN                 
1 87590U          25253.06324703  .00000488  00000+0  29943-3 0  9990
2 87590  98.8018 292.2612 0027369 186.1126 203.8995 14.10151716141044
UNKNOWN                 
1 87616U          25236.35124245  .00000905  00000+0  31557-2 0  9998
2 87616  66.0386   5.6521 0640351 186.4296 206.7860 12.46745406522471
UNKNOWN                 
1 87624U          25256.26672309  .00002697  00000+0  44277-3 0  9992
2 87624  98.6679 188.1534 0101092 169.8217 190.5066 14.68244578566992
UNKNOWN                 
1 87650U          25254.15900107  .00009817  00000+0  21154-2 0  9996
2 87650 100.2706  47.5061 0035085 192.7577 167.2731 14.58321448 66252
UNKNOWN                 
1 87672U          25256.59578295  .00002512  00000+0  10294-2 0  9997
2 87672  70.8579 201.3179 0056538  48.8671 311.7317 14.27247865611593
UNKNOWN                 
1 87681U          25253.92035126  .00000791  00000+0  88057-3 0  9992
2 87681  66.7379 318.4972 0164872 223.8154 134.9737 13.70855214589111
UNKNOWN                 
1 87690U          25256.32816374  .00003825  00000+0  60932-3 0  9994
2 87690  65.7932 228.7885 0580672  94.2956 272.4661 13.98998695594729
UNKNOWN                 
1 87706U          25256.46956709  .00003652  00000+0  66271-3 0  9994
2 87706  98.6769  75.2934 0107229 186.9426 230.2040 14.63223556565310
UNKNOWN                 
1 87725U          25256.21088885  .00020762  00000+0  23334-2 0  9992
2 87725  82.8710 337.7183 0008559 353.2318   6.8782 14.86594394620430
UNKNOWN                 
1 87730U          25257.41576924  .00000064  00000+0  51727-4 0  9999
2 87730  82.9438 300.2109 0028578 251.7562 108.0483 13.74485208573061
UNKNOWN                 
1 87737U          25256.37078601  .00000014  00000+0  58064-4 0  9995
2 87737  99.3873 130.0857 0134016  65.3776 296.1265 13.72319518591462
UNKNOWN                 
1 87764U          25257.53748834  .00008905  00000+0  15362-2 0  9995
2 87764  65.6743  47.6131 0369717 123.7572 309.4880 14.32677932606331
UNKNOWN                 
1 87771U          25257.37056132  .00000050  00000+0  23395-3 0  9997
2 87771 100.7525  91.5685 0119158 204.7801 154.7559 13.19484594523300
UNKNOWN                 
1 87782U          25257.34923127  .00002039  00000+0  69115-2 0  9991
2 87782 102.3115 117.3374 0064090  28.6648 331.7948 12.99766977556370
UNKNOWN                 
1 87843U          25257.07589852  .00002261  00000+0  52103-2 0  9998
2 87843  99.6675  18.7936 0243415 214.4934 144.0177 13.16073483552365
UNKNOWN                 
1 87845U          25256.39995709  .00000477  00000+0  94433-3 0  9996
2 87845  98.8407 231.6971 0577220 101.6147 265.0300 12.88534150553570
UNKNOWN                 
1 87878U          25246.03580573  .00006741  00000+0  21538-2 0  9996
2 87878  99.1509 358.6037 0036740 200.8127 159.1565 14.39616525596807
UNKNOWN                 
1 87884U          25257.04755508  .00000052  00000+0  52427-4 0  9990
2 87884  98.7300   4.0610 0153340 320.9837  38.0349 14.05884761605768
UNKNOWN                 
1 87934U          25247.62789794  .00000121  00000+0  11412-3 0  9998
2 87934  82.9400  12.9501 0029762 313.4953  58.2350 13.73088260590711
UNKNOWN                 
1 87991U          25257.20802891 -.00000507  00000+0 -11181-2 0  9992
2 87991  28.6236 275.9463 0900184 147.5818 218.3374 12.34818189511926
UNKNOWN                 
1 87998U          25244.75967728  .00001620  00000+0  91487-3 0  9999
2 87998  98.6000 254.6988 0026744 172.5970 187.5602 14.11406448534512
UNKNOWN                 
1 88030U          25242.37329146 -.00000773  24431-5  00000+0 0  9995
2 88030  97.6020 109.2169 0009655 254.1610 105.9143 16.00292379    21
UNKNOWN                 
1 89003U          25254.49213090  .00000279  00000+0  10455-3 0  9991
2 89003  74.0470 183.8555 0016736 265.0888  94.8354 14.36102206618305
UNKNOWN                 
1 89005U          25257.49793893  .00001545  00000+0  36543-3 0  9993
2 89005  97.8471  93.3543 0192921 306.4778  51.8772 14.44771553521207
UNKNOWN                 
1 89029U          25256.53171826  .00004123  00000+0  40138-3 0  9999
2 89029  98.0523 153.6024 0021431 262.4303  97.4481 14.92941563637619
UNKNOWN                 
1 89067U          25256.63705291  .00734746  26719-3  90850-3 0  9997
2 89067  80.9267 333.9531 0052905  49.0895 311.4943 16.04889359573897
UNKNOWN                 
1 89101U          25252.11180896 -.00000061  00000+0 -51862-4 0  9993
2 89101 100.4480 191.8828 0147432 319.4005  39.6181 13.03988005542510
UNKNOWN                 
1 89132U          25255.69122352 -.00000706  00000+0 -89060-3 0  9992
2 89132  63.4382 156.0315 2936311 319.6653  21.9172  8.86143599317040
UNKNOWN                 
1 89146U          25256.26736704  .00003636  00000+0  69111-3 0  9991
2 89146  98.2365 185.1435 0094981 339.6533  20.0894 14.61913284615658
UNKNOWN                 
1 89161U          25257.31220801  .00037861  00000+0  14752-2 0  9998
2 89161  97.6722 269.9707 0051075  24.4981 335.8666 15.24635185534892
UNKNOWN                 
1 89172U          25257.12705662  .00006705  00000+0  11342-2 0  9997
2 89172  82.0666 305.7920 0303751 195.8087 163.3466 14.43102352588959
UNKNOWN                 
1 89177U          25256.92716541  .00000064  00000+0  51703-4 0  9996
2 89177  82.9251 335.7253 0033092  34.7576 325.5732 13.73706684 50498
UNKNOWN                 
1 89183U          25255.72491530  .00000497  00000+0  47489-3 0  9993
2 89183  99.2141 168.9112 0132229  38.9919 322.0679 13.81425861594403
UNKNOWN                 
1 89184U          25256.57814864  .00012147  00000+0  17921-2 0  9999
2 89184  98.3979 117.5469 0013369  59.2015 301.0507 14.75396269478854
UNKNOWN                 
1 89213U          25255.45583981  .00000415  00000+0  29150-3 0  9994
2 89213  98.7905 133.3537 0228994  17.2916 343.5883 13.91439596439974
UNKNOWN                 
1 89251U          25257.79707294  .00011927  00000+0  66907-2 0  9990
2 89251  62.4692 119.4710 2854488  92.3986 300.2074  9.21873444364972
UNKNOWN                 
1 89261U          25256.74895049  .00000692  00000+0  21959-3 0  9997
2 89261  98.1515 255.0494 0014402  74.2353 286.0424 14.42833694520839
UNKNOWN                 
1 89304U          25257.37717770  .00018855  00000+0  28503-1 0  9999
2 89304  84.4464 127.3922 2836245  99.9134  14.7677  9.00001892430342
UNKNOWN                 
1 89314U          25255.89777959  .00001564  00000+0  28080-2 0  9990
2 89314  18.9798 225.9447 6971218 176.7956 192.9180  2.59873527 86481
UNKNOWN                 
1 89349U          25256.29453835  .00000470  00000+0  16193-2 0  9994
2 89349  90.2493   5.3077 0032563 143.7330 216.6005 12.96203893467037
UNKNOWN                 
1 89379U          25256.73931087  .00002588  00000+0  34168-2 0  9990
2 89379 100.4866 265.3707 0044219 351.3059   8.7309 13.61716369568525
UNKNOWN                 
1 89395U          25235.42751828 -.00000343  00000+0 -33964-2 0  9996
2 89395 102.3492 209.9724 0225238 315.3228 198.5611 12.01490914511375
UNKNOWN                 
1 89403U          25257.26281671  .00000995  00000+0  33445-2 0  9991
2 89403  90.2502   3.7672 0030817 105.2096 283.8653 12.98516615466219
UNKNOWN                 
1 89484U          25256.49311477  .00016613  00000+0  23107-1 0  9999
2 89484  84.1168 180.0281 2821450 144.1800 238.6198  9.04962283347232
UNKNOWN                 
1 89493U          25257.40171905  .00001782  00000+0  90633-3 0  9992
2 89493  99.0330 325.0799 0080955 292.4647  66.7968 14.15521562451302
UNKNOWN                 
1 89494U          25257.45190473  .00001688  00000+0  86037-3 0  9997
2 89494  99.0339 325.0275 0081686 292.3743  66.8789 14.15458190451161
